#dP2021  7 29  0  0  0.00000000     289 ORBIT IGS14 BHN ESOC                    
## 2168 345600.00000000   300.00000000 59424 0.0000000000000                    
+  114   G13G28G21G22G07G05G20G31G17G15G16G29G12G19G02G25G01                    
+        G30G24G27G06G09G03G32G26G08G10G04G18G23G14R09R11R20                    
+        R19R13R01R22R16R08R03R07R02R17R18R21R05R15R12R04R24                    
+        E11E12E19E18E14E26E24E30E08E09E01E02E07E03E04E05E21                    
+        E25E27E31E36E13E15E33C11C12C14C19C20C27C28C22C21C29                    
+        C30C23C24C26C25C32C33C35C34C36C37C45C44C43C41C42C06                    
+        C07C08C09C10C13C16C38C39C40J01J02J03  0  0  0  0  0                    
++         5  4  5  5  4  5  5  5  5  5  5  5  5  5  5  5  5                    
++         5  5  5  4  5  5  4  5  5  5  5  5  5  5  7  5  6                    
++         6  6  7  6  5  6  6  5  5  5  5  5  6  5  5  5  5                    
++         5  5  4  6  5  5  5  5  5  4  5  5  5  5  5  5  5                    
++         5  5  4  5  5  5  5  6  5  5  5  4  5  5  6  5  5                    
++         5  5  5  5  5  4  5  8  5  5  5  6  6  5  6  6  6                    
++         7  6  6  6  7  5  8  7  7 12  7  6  0  0  0  0  0                    
%c M  cc GPS ccc cccc cccc cccc cccc ccccc ccccc ccccc ccccc                    
%c cc cc ccc ccc cccc cccc cccc cccc ccccc ccccc ccccc ccccc                    
%f  0.0000000  0.000000000  0.00000000000  0.000000000000000                    
%f  0.0000000  0.000000000  0.00000000000  0.000000000000000                    
%i    0    0    0    0      0      0      0      0         0                    
%i    0    0    0    0      0      0      0      0         0                    
/* CCCCCCCCCCCCCCCCCCCCCCCCCCCCCCCCCCCCCCCCCCCCCCCCCCCCCCCCCCCCCCCCCCCCCCCCCCCCC
/* CCCCCCCCCCCCCCCCCCCCCCCCCCCCCCCCCCCCCCCCCCCCCCCCCCCCCCCCCCCCCCCCCCCCCCCCCCCCC
/* CCCCCCCCCCCCCCCCCCCCCCCCCCCCCCCCCCCCCCCCCCCCCCCCCCCCCCCCCCCCCCCCCCCCCCCCCCCCC
/* PCV:IGS14      OL/AL:EOT11A   NONE     YN ORB:CoN CLK:CoN                    
*  2021  7 29  7 25  0.00000000                                                 
PG13 -13219.852382  21708.192446   7313.415521    164.007009                    
PG28 -19718.264793  -5054.230315 -16412.253825    529.541076                    
PG21   7617.122535 -16850.656214 -18167.880210    134.100899                    
PG22  -1670.846438 -18527.398243 -18850.883724   -551.730706                    
PG07 -16475.545617  -9255.229521  19219.204061    213.214658                    
PG05  -3205.029725  16253.568156  20561.428001    -49.390540                    
PG20 -14116.380856   8719.242656  20659.433584    519.940166                    
PG31  25859.545793  -7082.415454   -587.719161   -131.280881                    
PG17 -14171.690995  -3366.985054 -21782.352519    481.062213                    
PG15  -2992.140644  26181.439904    576.604117   -132.202006                    
PG16  10216.739907 -10781.416760  21758.868237   -364.830999                    
PG29   6063.864559  19382.945697  17034.068243   -387.742881                    
PG12   6318.316809  21336.898559 -14852.037870    -75.264226                    
PG19 -16347.276174   6154.228567 -20243.644027     32.536786                    
PG02 -20549.443190  14814.836327   8739.859214   -622.803675                    
PG25  16210.068896  20415.963967  -6041.706476    181.806472                    
PG01   -823.598135 -15081.658105 -22086.763111    613.880755                    
PG30 -24579.376501   -804.094810  10402.997294   -456.196805                    
PG24  -3596.685800  17311.590159 -19961.785504    191.094988                    
PG27  12082.423104 -20667.841050  10915.641645   -170.162303                    
PG06 -25687.995503   6404.485591  -2438.482817     47.271495                    
PG09  -9219.009340 -17547.000117  17607.048296   -357.158504                    
PG03  -8090.026935 -20843.700363 -14514.571841   -235.681590                    
PG32  15493.521737   -351.094740 -21439.077691     11.320659                    
PG26  18660.246393  -2301.702482  18803.448832    116.264368                    
PG08   6101.718745 -25638.226104   1385.120710    -30.550264                    
PG10  22091.743031   9309.732616 -11612.079633   -171.558664                    
PG04   -403.489895 -24833.651421   9331.914355   -203.194171                    
PG18  18327.288350   7349.060349  17788.129367    337.411546                    
PG23  20591.462905  16794.739939  -1114.379113     78.126133                    
PG14 -21662.535228  -9424.662930 -12190.450510     36.239364                    
PR09   7474.524868  -9536.769932  22458.617358      5.319927                    
PR11 -23457.232965  -8493.855862   5373.613815     45.286988                    
PR20  16017.915962 -18758.547179  -6425.021595    -53.262734                    
PR19  19356.287277  -9955.215514  13301.161301   -153.358948                    
PR13  -8305.766468   8957.580856 -22402.089257    -58.408994                    
PR01 -11021.943521   1639.348164  22947.262004     82.993051                    
PR22 -12413.521252  -1801.818023 -22247.894423   -125.106336                    
PR16  21659.720682  -1590.159305  13466.658794    -18.673961                    
PR08 -12260.500518 -14383.579909  17174.602379    -60.139930                    
PR03   7275.872647  24428.063015  -1518.842856     40.345410                    
PR07  -7592.236245 -24219.405751   2333.597717    -41.866264                    
PR02  -1956.539277  20579.142139  15027.343319    487.776879                    
PR17  -1926.088834  15027.888504  20508.405023    445.146804                    
PR18  11668.309486   2723.929425  22518.870319     85.042940                    
PR21    994.712878 -14306.149714 -21110.972876   -227.458669                    
PR05  10288.882370  -3349.186484 -23088.109523     76.175583                    
PR15  23541.987352   8591.379839  -4715.745669    102.403004                    
PR12 -22159.896240    379.465249 -12582.981136    249.200680                    
PR04  12114.548511  14553.213627 -17067.772359     97.894493                    
PR24 -15204.236426  19211.583757   7074.290145     52.345050                    
PE11 -22867.462015  17450.405219   6988.100852   5653.870531                    
PE12 -26435.562744   5022.677539 -12355.664325   5087.424530                    
PE19 -10395.481162 -22539.706331  16134.778743    338.709468                    
PE18   1008.420721 -29446.509838  -9136.979656  -1662.803334                    
PE14 -11177.965783  23494.454198  -5264.057665  -1516.716608                    
PE26   5232.259178 -19179.563697 -21937.351743   1524.337667                    
PE24 -14984.831899   9506.000086 -23693.347782  -1033.532639                    
PE30  26084.493845   6805.391651  12231.380845   2745.721417                    
PE08  16955.885440   -544.291155 -24253.604983   5962.788573                    
PE09 -12219.342775  21343.603173  16464.555508   5584.431555                    
PE01 -22034.330515 -18829.094110   6022.744125  -1160.162449                    
PE02  22127.150253  18768.960014  -5875.014264    236.189829                    
PE07  12487.604555 -21162.080081 -16506.250844   -567.328025                    
PE03  11697.392791  20668.927241 -17657.010003   -457.817112                    
PE04 -17097.402405     24.515097  24170.776417   -823.443999                    
PE05   -671.334755  29582.936920   -654.886786   -261.485061                    
PE21  -6091.543265 -20336.879596  20633.642852   -678.917515                    
PE25   5876.953741  20279.966133 -20732.513150   -541.502943                    
PE27  14114.995295 -10211.040604  23939.704842    -86.042146                    
PE31 -25870.892156  -5856.039175 -13128.009326   -483.789013                    
PE36  -6176.044431  19271.315902  21598.051164   -240.944499                    
PE13  23066.694311 -17338.893325  -6596.092475    419.614409                    
PE15  26399.912934  -5166.374156  12349.703569    800.922089                    
PE33 -14179.317522 -10019.008180 -23977.213671   -467.018980                    
PC11 -10473.154694 -11426.359849 -23153.297978    485.457365                    
PC12   4552.307506 -23254.174349 -14733.800576    797.385244                    
PC14 -16625.775573 -20756.609098   8577.477854    765.199605                    
PC19  18684.178807  12507.522524 -16492.086945    926.644193                    
PC20  12734.506532  24790.346610   -998.907939   -832.508861                    
PC27 -11791.490435  24434.483216   6536.245236    572.038114                    
PC28 -20356.928224  15605.721130 -10980.794640    -45.028764                    
PC22  14000.021216  -7474.568766 -22953.719067   -948.961461                    
PC21   1185.096202 -22898.072782 -15909.138787   -937.529074                    
PC29  17065.284990   1722.928792  22002.279376    425.905072                    
PC30   3932.166832  19167.648303  19894.400083    475.600849                    
PC23 -24760.969372   6066.931406 -11341.134404   -965.137111                    
PC24 -12126.359640 -15340.766193  19903.344989   -963.100116                    
PC26   7466.096407 -15360.901633  22070.706551    872.017462                    
PC25 -26797.939269  -5495.305155   5468.528790   -878.666048                    
PC32  -1088.453917  22865.345261  15964.407819   -926.965770                    
PC33 -18789.747067 -12491.003375  16438.927452   -948.850426                    
PC35  19881.486594 -15978.458749  11277.739207   -165.074427                    
PC34  -4615.238623 -18627.762635 -20266.310892   -617.393523                    
PC36  26547.738924   6327.337660  -5785.912336   -737.350309                    
PC37  -8818.951892  14934.685088 -21833.803153   -862.673172                    
PC45  24660.191032  -6167.451197  11545.113532    506.084086                    
PC44  11019.253633 -24821.430085  -6368.938578    313.473689                    
PC43 -16900.758663  -2434.721261 -22086.165704   -843.122704                    
PC41 -14222.755451   7161.399897  22963.515814   -968.742838                    
PC42 -12349.888607 -25035.323397    281.135103   -925.067220                    
PC06 -20067.554853  37271.588819  -2602.685784    685.745002                    
PC07  -7668.663341  29633.369476 -28476.284139     69.768341                    
PC08 -19231.803344  19075.219432  32290.556987   -911.644451                    
PC09 -10330.954925  37429.934844 -16669.298727     14.419708                    
PC10   4075.271702  35782.567208 -21292.811793    -13.963161                    
PC13  -3982.729437  22643.566154  35418.922032    353.919974                    
PC16 -18176.866290  37862.600260  -4791.737155   -890.906579                    
PC38 -17381.001003  21823.534137  31568.325100    164.858678                    
PC39 -15262.522574  39054.381853  -5146.258962     32.631083                    
PC40    350.518187  33731.141437 -25168.283356    185.053359                    
PJ01 -25935.618827  24844.082270  27069.875632   -426.447049                    
PJ02 -27125.071987  14845.260201 -24148.263238     -1.118136                    
PJ03 -26048.895675  32710.763463   -386.914153     -0.407879                    
EOF                                                                             
